     3.02           N: GNSS NAV DATA    G: GPS              RINEX VERSION / TYPE
cnvtToRINEX 3.09.11 PM                  05-Apr-20 00:15 UTC PGM / RUN BY / DATE 
----------------------------------------------------------- COMMENT             
GPSA   0.1118D-07  0.1490D-07 -0.5960D-07 -0.5960D-07       IONOSPHERIC CORR    
GPSB   0.8806D+05  0.1638D+05 -0.1966D+06 -0.1311D+06       IONOSPHERIC CORR    
GPUT -0.1862645149D-08-0.355271368D-14 233472 2100          TIME SYSTEM CORR    
    18                                                      LEAP SECONDS        
                                                            END OF HEADER       
G31 2020 04 05 00 00 00-0.339387916029D-04-0.250111042988D-11 0.000000000000D+00
     0.520000000000D+02 0.386250000000D+02 0.490949021426D-08 0.783067881189D+00
     0.213272869587D-05 0.953176117036D-02 0.489130616188D-05 0.515354484177D+04
     0.000000000000D+00 0.875443220139D-07 0.831130209944D+00 0.167638063431D-06
     0.957931892383D+00 0.282406250000D+03 0.124148386456D+00-0.840963600938D-08
     0.218223375594D-09 0.100000000000D+01 0.210000000000D+04 0.000000000000D+00
     0.200000000000D+01 0.000000000000D+00-0.135041773319D-07 0.520000000000D+02
     0.597618000000D+06 0.400000000000D+01 0.000000000000D+00 0.000000000000D+00
G17 2020 04 05 00 00 00 0.243583694100D-03 0.613908923697D-11 0.000000000000D+00
     0.107000000000D+03 0.100437500000D+03 0.384730311276D-08-0.228717843469D+01
     0.520981848240D-05 0.132577000186D-01 0.116378068924D-04 0.515368478775D+04
     0.000000000000D+00 0.176951289177D-06 0.295557331419D+01 0.912696123123D-07
     0.984393338928D+00 0.164093750000D+03-0.164440002171D+01-0.751102715014D-08
     0.306084178206D-09 0.100000000000D+01 0.210000000000D+04 0.000000000000D+00
     0.200000000000D+01 0.000000000000D+00-0.111758708954D-07 0.107000000000D+03
     0.597618000000D+06 0.400000000000D+01 0.000000000000D+00 0.000000000000D+00
G 8 2020 04 05 00 00 00-0.295341014862D-04-0.125055521494D-11 0.000000000000D+00
     0.840000000000D+02 0.792812500000D+02 0.416088760338D-08-0.203802044337D+01
     0.392831861973D-05 0.532801030204D-02 0.116582959890D-04 0.515365478897D+04
     0.000000000000D+00-0.875443220139D-07 0.288368966861D+01-0.875443220139D-07
     0.970146620512D+00 0.163750000000D+03-0.118805427809D+00-0.784639826255D-08
     0.170721396946D-09 0.100000000000D+01 0.210000000000D+04 0.000000000000D+00
     0.200000000000D+01 0.000000000000D+00 0.512227416039D-08 0.840000000000D+02
     0.597618000000D+06 0.400000000000D+01 0.000000000000D+00 0.000000000000D+00
G22 2020 04 04 23 59 44-0.785129144788D-03 0.454747350886D-12 0.000000000000D+00
     0.610000000000D+02-0.122750000000D+03 0.528450583517D-08-0.310520861115D+01
    -0.632368028164D-05 0.721431465354D-02 0.607594847679D-05 0.515353887367D+04
     0.604784000000D+06 0.745058059692D-07-0.125351585959D+01 0.154599547386D-06
     0.929876434206D+00 0.242250000000D+03-0.119210227920D+01-0.852214069565D-08
    -0.432160858377D-09 0.100000000000D+01 0.209900000000D+04 0.000000000000D+00
     0.200000000000D+01 0.000000000000D+00-0.181607902050D-07 0.610000000000D+02
     0.597618000000D+06 0.400000000000D+01 0.000000000000D+00 0.000000000000D+00
G 3 2020 04 05 00 00 00-0.136639922857D-03-0.105728759081D-10 0.000000000000D+00
     0.133000000000D+03-0.120250000000D+03 0.447875798682D-08 0.874424144053D+00
    -0.621005892754D-05 0.271446385887D-02 0.770390033722D-05 0.515358893013D+04
     0.000000000000D+00 0.186264514923D-08-0.128938573753D+01 0.689178705215D-07
     0.964982168592D+00 0.231062500000D+03 0.692466650827D+00-0.824177187431D-08
    -0.500377985609D-09 0.100000000000D+01 0.210000000000D+04 0.000000000000D+00
     0.200000000000D+01 0.000000000000D+00 0.186264514923D-08 0.133000000000D+03
     0.597618000000D+06 0.400000000000D+01 0.000000000000D+00 0.000000000000D+00
G14 2020 04 05 00 00 00-0.217179767787D-04 0.250111042988D-11 0.000000000000D+00
     0.180000000000D+02 0.187187500000D+02 0.414552982081D-08-0.244872003861D+01
     0.925734639168D-06 0.111964064417D-01 0.121314078569D-04 0.515363215637D+04
     0.000000000000D+00 0.316649675369D-07-0.162829327318D+00-0.124797224998D-06
     0.960939719248D+00 0.145781250000D+03-0.192390716438D+01-0.756817238762D-08
     0.390016245742D-09 0.100000000000D+01 0.210000000000D+04 0.000000000000D+00
     0.200000000000D+01 0.000000000000D+00-0.977888703346D-08 0.180000000000D+02
     0.597618000000D+06 0.400000000000D+01 0.000000000000D+00 0.000000000000D+00
G10 2020 04 05 00 00 00-0.299963634461D-03-0.122781784739D-10 0.000000000000D+00
     0.550000000000D+02-0.105062500000D+03 0.451518807571D-08-0.173623216744D+00
    -0.565499067307D-05 0.550733052660D-02 0.664591789246D-05 0.515366859818D+04
     0.000000000000D+00 0.186264514923D-08-0.129245293985D+01 0.651925802231D-07
     0.964940626107D+00 0.252000000000D+03-0.263632601946D+01-0.828320217148D-08
    -0.480734310228D-09 0.100000000000D+01 0.210000000000D+04 0.000000000000D+00
     0.200000000000D+01 0.000000000000D+00 0.186264514923D-08 0.550000000000D+02
     0.597618000000D+06 0.400000000000D+01 0.000000000000D+00 0.000000000000D+00
G11 2020 04 05 00 00 00-0.314312987030D-03 0.108002495836D-10 0.000000000000D+00
     0.370000000000D+02 0.958750000000D+02 0.583667169223D-08 0.144285355509D+01
     0.474043190479D-05 0.158847358543D-01 0.511854887009D-05 0.515371558380D+04
     0.000000000000D+00 0.335276126862D-06-0.280167135375D+01-0.314787030220D-06
     0.912531220188D+00 0.250906250000D+03 0.197237023906D+01-0.880500962114D-08
     0.380730144653D-09 0.100000000000D+01 0.210000000000D+04 0.000000000000D+00
     0.200000000000D+01 0.000000000000D+00-0.125728547573D-07 0.370000000000D+02
     0.597618000000D+06 0.400000000000D+01 0.000000000000D+00 0.000000000000D+00
G 1 2020 04 04 23 59 44-0.348324421793D-03-0.114823706099D-10 0.000000000000D+00
     0.300000000000D+01 0.347812500000D+02 0.459161983082D-08 0.193961654632D+01
     0.169314444065D-05 0.962420459837D-02 0.282563269138D-05 0.515362812805D+04
     0.604784000000D+06-0.296160578728D-06-0.221021257220D+01-0.102445483208D-06
     0.979399055102D+00 0.336781250000D+03 0.758873790894D+00-0.837463455143D-08
     0.213223167315D-09 0.100000000000D+01 0.209900000000D+04 0.000000000000D+00
     0.200000000000D+01 0.000000000000D+00 0.558793544769D-08 0.300000000000D+01
     0.597618000000D+06 0.400000000000D+01 0.000000000000D+00 0.000000000000D+00
G32 2020 04 05 00 00 00 0.252415891737D-03 0.864019966684D-11 0.000000000000D+00
     0.580000000000D+02 0.437500000000D+01 0.429339312277D-08-0.147583536795D+01
     0.163912773132D-06 0.379005377181D-02 0.124182552099D-04 0.515370288277D+04
     0.000000000000D+00 0.894069671631D-07-0.250096582007D+00-0.158324837685D-06
     0.957276417308D+00 0.141250000000D+03-0.248060232371D+01-0.779853912617D-08
     0.225366530278D-09 0.100000000000D+01 0.210000000000D+04 0.000000000000D+00
     0.200000000000D+01 0.000000000000D+00 0.465661287308D-09 0.580000000000D+02
     0.597618000000D+06 0.400000000000D+01 0.000000000000D+00 0.000000000000D+00
G27 2020 04 05 00 00 00-0.257974490523D-03-0.105728759081D-10 0.000000000000D+00
     0.680000000000D+02 0.720312500000D+02 0.400909556635D-08-0.220613114194D+01
     0.352226197720D-05 0.814870465547D-02 0.108573585749D-04 0.515366433716D+04
     0.000000000000D+00 0.651925802231D-07 0.289754651497D+01-0.100582838058D-06
     0.978559742427D+00 0.180250000000D+03 0.531038408430D+00-0.770496379981D-08
     0.231795369493D-09 0.100000000000D+01 0.210000000000D+04 0.000000000000D+00
     0.200000000000D+01 0.000000000000D+00 0.139698386192D-08 0.680000000000D+02
     0.597618000000D+06 0.400000000000D+01 0.000000000000D+00 0.000000000000D+00
G 4 2020 04 05 00 00 00-0.717975199223D-04-0.522959453519D-11 0.000000000000D+00
     0.290000000000D+02 0.743750000000D+01 0.426446334630D-08 0.309927067201D+01
     0.372529029846D-06 0.648325658403D-03 0.129770487547D-04 0.515370801353D+04
     0.000000000000D+00 0.279396772385D-07-0.210770623008D+00 0.596046447754D-07
     0.960439035535D+00 0.129093750000D+03-0.264830311556D+01-0.783782647693D-08
     0.395016454021D-09 0.100000000000D+01 0.210000000000D+04 0.000000000000D+00
     0.200000000000D+01 0.000000000000D+00-0.419095158577D-08 0.285000000000D+03
     0.598506000000D+06 0.400000000000D+01 0.000000000000D+00 0.000000000000D+00
G19 2020 04 05 00 00 00-0.176404602826D-03 0.511590769747D-11 0.000000000000D+00
     0.510000000000D+02 0.858437500000D+02 0.395087885568D-08 0.402332954622D+00
     0.457838177681D-05 0.929349148646D-02 0.116862356663D-04 0.515368787003D+04
     0.000000000000D+00-0.782310962677D-07 0.300126065835D+01-0.242143869400D-07
     0.982534828782D+00 0.168062500000D+03 0.158417982553D+01-0.795926010656D-08
     0.225009372544D-09 0.100000000000D+01 0.210000000000D+04 0.000000000000D+00
     0.200000000000D+01 0.000000000000D+00-0.153668224812D-07 0.510000000000D+02
     0.599058000000D+06 0.400000000000D+01 0.000000000000D+00 0.000000000000D+00
G 3 2020 04 04 23 59 44-0.136640388519D-03-0.105728759081D-10 0.000000000000D+00
     0.500000000000D+01-0.120250000000D+03 0.447875798682D-08 0.872088457825D+00
    -0.621005892754D-05 0.271446513943D-02 0.770390033722D-05 0.515358892632D+04
     0.604784000000D+06 0.186264514923D-08-0.116897033766D+01 0.689178705215D-07
     0.964982167129D+00 0.231062500000D+03 0.692468441439D+00-0.824177187431D-08
    -0.500377985609D-09 0.100000000000D+01 0.209900000000D+04 0.000000000000D+00
     0.200000000000D+01 0.000000000000D+00 0.186264514923D-08 0.500000000000D+01
     0.601038000000D+06 0.400000000000D+01 0.000000000000D+00 0.000000000000D+00
